[{"OBJECT_NAME":"YAOGAN-31 04C","OBJECT_ID":"2021-020D","EPOCH":"2026-03-09T22:27:49.782240","MEAN_MOTION":13.45440258,"ECCENTRICITY":0.01660597,"INCLINATION":63.4065,"RA_OF_ASC_NODE":153.1123,"ARG_OF_PERICENTER":0.0567,"MEAN_ANOMALY":0.045,"EPHEMERIS_TYPE":0,"CLASSIFICATION_TYPE":"U","NORAD_CAT_ID":47857,"ELEMENT_SET_NO":999,"REV_AT_EPOCH":24510,"BSTAR":3.7998347e-5,"MEAN_MOTION_DOT":-6.6e-7,"MEAN_MOTION_DDOT":0},{"OBJECT_NAME":"ONEWEB-0332","OBJECT_ID":"2021-090A","EPOCH":"2026-03-09T17:35:04.260480","MEAN_MOTION":13.14503441,"ECCENTRICITY":0.00016145,"INCLINATION":87.8984,"RA_OF_ASC_NODE":309.5537,"ARG_OF_PERICENTER":92.7609,"MEAN_ANOMALY":267.3706,"EPHEMERIS_TYPE":0,"CLASSIFICATION_TYPE":"U","NORAD_CAT_ID":49279,"ELEMENT_SET_NO":999,"REV_AT_EPOCH":21451,"BSTAR":0.00074309621,"MEAN_MOTION_DOT":2.88e-6,"MEAN_MOTION_DDOT":0}]
